OBJECT C                
1 57582U 23117C   25179.21378421  .00005289  00000+0  20686-3 0  9991
2 57582  97.4444 254.0821 0010134  64.3458 295.8826 15.26233185104351
